0 ONEWEB-0086
1 45456U 20020AJ  23282.36433689  .00000585  00000-0  16158-2 0  9998
2 45456  87.8983 216.0948 0002475  77.0620 283.0785 13.11421013173921
0 ONEWEB-0088
1 45457U 20020AK  23282.57051856  .00000647  00000-0  17891-2 0  9998
2 45457  87.8985 216.0344 0002092  79.5495 280.5869 13.11416164173887
0 ONEWEB-0102
1 47258U 20100A   23282.42841579  .00000326  00000-0  87172-3 0  9995
2 47258  87.9072 185.8775 0001732  62.7396 297.3909 13.12440894135956
0 ONEWEB-0109
1 47259U 20100B   23282.43899950 -.00000050  00000-0 -17372-3 0  9994
2 47259  87.9007 185.8601 0001821  72.8397 287.2931 13.12442884135780
0 ONEWEB-0110
1 47260U 20100C   23282.76724141 -.00000361  00000-0 -10380-2 0  9997
2 47260  87.9072 185.7927 0001824  66.9818 293.1503 13.12443880135990
0 ONEWEB-0111
1 47261U 20100D   23282.49407820  .00000363  00000-0  97504-3 0  9994
2 47261  87.9066 185.8352 0001751  69.8613 290.2704 13.12440118135791
0 ONEWEB-0114
1 47262U 20100E   23282.44958819 -.00000321  00000-0 -92796-3 0  9993
2 47262  87.9073 185.8653 0001255  62.4880 297.6376 13.12444004135747
0 ONEWEB-0117
1 47263U 20100F   23282.44112125 -.00000738  00000-0 -20875-2 0  9996
2 47263  87.9004 185.8696 0001414  71.8243 288.3039 13.12436408135756
